SEEDS II (CO-66)        
1 32791U 08021J   26068.92109284  .00023758  00000+0  84213-3 0  9995
2 32791  97.7519  62.3611 0001448 359.2618   0.8619 15.29097235972108
STARLINK-30994          
1 58483U 23186L   26068.94780019 -.00001146  00000+0 -32141-4 0  9996
2 58483  42.9978 258.7093 0001016 266.5661  93.5075 15.27566859127848
